{
  "type": "FeatureCollection",
  "features": [
    {
      "type": "Feature",
      "properties": {
        "norad_id": 61182,
        "name": "GSAT0232 (GALILEO 32)",
        "group": "gnss",
        "lat": 45.845123548659494,
        "lon": -87.74411457008453,
        "alt_km": 23222.844767330313,
        "timestamp": "2025-12-03T10:52:57.694826+00:00",
        "meta_object_name": "GSAT0232 (GALILEO 32)",
        "meta_object_id": "2024-167A",
        "meta_epoch": "2025-11-29T15:16:36.414048",
        "meta_mean_motion": 1.70473184,
        "meta_eccentricity": 0.00022439,
        "meta_inclination": 55.2459,
        "meta_ra_of_asc_node": 226.7912,
        "meta_arg_of_pericenter": 216.1557,
        "meta_mean_anomaly": 22.2275,
        "meta_ephemeris_type": 0,
        "meta_classification_type": "U",
        "meta_norad_cat_id": 61182,
        "meta_element_set_no": 999,
        "meta_rev_at_epoch": 747,
        "meta_bstar": 0,
        "meta_mean_motion_dot": 2.7e-07,
        "meta_mean_motion_ddot": 0,
        "tle_line1": "1 61182U 24167A   25333.63653257  .00000027  00000+0  00000+0 0  9998",
        "tle_line2": "2 61182  55.2459 226.7912 0002243 216.1557  22.2275  1.70473184  7470"
      },
      "geometry": {
        "type": "Point",
        "coordinates": [
          -87.74411457008453,
          45.845123548659494
        ]
      }
    },
    {
      "type": "Feature",
      "properties": {
        "norad_id": 61183,
        "name": "GSAT0226 (GALILEO 31)",
        "group": "gnss",
        "lat": 5.3214606973610685,
        "lon": 42.99152193139497,
        "alt_km": 23220.113190479224,
        "timestamp": "2025-12-03T10:52:57.694843+00:00",
        "meta_object_name": "GSAT0226 (GALILEO 31)",
        "meta_object_id": "2024-167B",
        "meta_epoch": "2025-11-26T08:32:06.516672",
        "meta_mean_motion": 1.70473481,
        "meta_eccentricity": 6.079e-05,
        "meta_inclination": 55.246,
        "meta_ra_of_asc_node": 226.8867,
        "meta_arg_of_pericenter": 154.246,
        "meta_mean_anomaly": 343.2327,
        "meta_ephemeris_type": 0,
        "meta_classification_type": "U",
        "meta_norad_cat_id": 61183,
        "meta_element_set_no": 999,
        "meta_rev_at_epoch": 739,
        "meta_bstar": 0,
        "meta_mean_motion_dot": 3e-07,
        "meta_mean_motion_ddot": 0,
        "tle_line1": "1 61183U 24167B   25330.35563098  .00000030  00000+0  00000+0 0  9992",
        "tle_line2": "2 61183  55.2460 226.8867 0000607 154.2460 343.2327  1.70473481  7395"
      },
      "geometry": {
        "type": "Point",
        "coordinates": [
          42.99152193139497,
          5.3214606973610685
        ]
      }
    },
    {
      "type": "Feature",
      "properties": {
        "norad_id": 61186,
        "name": "BEIDOU-3 M25 (C47)",
        "group": "gnss",
        "lat": -9.00990004449939,
        "lon": -57.43743405039024,
        "alt_km": 21520.78555292975,
        "timestamp": "2025-12-03T10:52:57.694861+00:00",
        "meta_object_name": "BEIDOU-3 M25 (C47)",
        "meta_object_id": "2024-168B",
        "meta_epoch": "2025-12-01T06:18:53.159328",
        "meta_mean_motion": 1.86229803,
        "meta_eccentricity": 0.000556,
        "meta_inclination": 54.6528,
        "meta_ra_of_asc_node": 309.1184,
        "meta_arg_of_pericenter": 293.396,
        "meta_mean_anomaly": 26.9682,
        "meta_ephemeris_type": 0,
        "meta_classification_type": "U",
        "meta_norad_cat_id": 61186,
        "meta_element_set_no": 999,
        "meta_rev_at_epoch": 809,
        "meta_bstar": 0,
        "meta_mean_motion_dot": -5.7e-07,
        "meta_mean_motion_ddot": 0,
        "tle_line1": "1 61186U 24168B   25335.26311527 -.00000057  00000+0  00000+0 0  9999",
        "tle_line2": "2 61186  54.6528 309.1184 0005560 293.3960  26.9682  1.86229803  8097"
      },
      "geometry": {
        "type": "Point",
        "coordinates": [
          -57.43743405039024,
          -9.00990004449939
        ]
      }
    },
    {
      "type": "Feature",
      "properties": {
        "norad_id": 61187,
        "name": "BEIDOU-3 M27 (C49)",
        "group": "gnss",
        "lat": 42.62379176953023,
        "lon": 88.22928941484317,
        "alt_km": 21528.8566501204,
        "timestamp": "2025-12-03T10:52:57.694881+00:00",
        "meta_object_name": "BEIDOU-3 M27 (C49)",
        "meta_object_id": "2024-168C",
        "meta_epoch": "2025-12-01T06:11:08.494080",
        "meta_mean_motion": 1.86229947,
        "meta_eccentricity": 0.0002285,
        "meta_inclination": 54.6482,
        "meta_ra_of_asc_node": 309.1022,
        "meta_arg_of_pericenter": 327.2674,
        "meta_mean_anomaly": 124.4273,
        "meta_ephemeris_type": 0,
        "meta_classification_type": "U",
        "meta_norad_cat_id": 61187,
        "meta_element_set_no": 999,
        "meta_rev_at_epoch": 557,
        "meta_bstar": 0,
        "meta_mean_motion_dot": -5.7e-07,
        "meta_mean_motion_ddot": 0,
        "tle_line1": "1 61187U 24168C   25335.25773720 -.00000057  00000+0  00000+0 0  9996",
        "tle_line2": "2 61187  54.6482 309.1022 0002285 327.2674 124.4273  1.86229947  5577"
      },
      "geometry": {
        "type": "Point",
        "coordinates": [
          88.22928941484317,
          42.62379176953023
        ]
      }
    },
    {
      "type": "Feature",
      "properties": {
        "norad_id": 62339,
        "name": "GPS BIII-7  (PRN 01)",
        "group": "gnss",
        "lat": 28.28359647000987,
        "lon": 4.332951683077264,
        "alt_km": 20159.43963575874,
        "timestamp": "2025-12-03T10:52:57.694899+00:00",
        "meta_object_name": "GPS BIII-7  (PRN 01)",
        "meta_object_id": "2024-242A",
        "meta_epoch": "2025-12-02T03:41:48.732000",
        "meta_mean_motion": 2.00567227,
        "meta_eccentricity": 0.0011644,
        "meta_inclination": 54.9268,
        "meta_ra_of_asc_node": 342.1698,
        "meta_arg_of_pericenter": 343.3913,
        "meta_mean_anomaly": 193.6606,
        "meta_ephemeris_type": 0,
        "meta_classification_type": "U",
        "meta_norad_cat_id": 62339,
        "meta_element_set_no": 999,
        "meta_rev_at_epoch": 730,
        "meta_bstar": 0,
        "meta_mean_motion_dot": -6.2e-07,
        "meta_mean_motion_ddot": 0,
        "tle_line1": "1 62339U 24242A   25336.15403625 -.00000062  00000+0  00000+0 0  9999",
        "tle_line2": "2 62339  54.9268 342.1698 0011644 343.3913 193.6606  2.00567227  7306"
      },
      "geometry": {
        "type": "Point",
        "coordinates": [
          4.332951683077264,
          28.28359647000987
        ]
      }
    },
    {
      "type": "Feature",
      "properties": {
        "norad_id": 62850,
        "name": "NVS-02 (IRNSS-1K)",
        "group": "gnss",
        "lat": 3.311228669050785,
        "lon": 142.33070774638716,
        "alt_km": 25708.320850119024,
        "timestamp": "2025-12-03T10:52:57.694920+00:00",
        "meta_object_name": "NVS-02 (IRNSS-1K)",
        "meta_object_id": "2025-020A",
        "meta_epoch": "2025-12-02T21:32:53.515968",
        "meta_mean_motion": 2.17584219,
        "meta_eccentricity": 0.73481,
        "meta_inclination": 21.0092,
        "meta_ra_of_asc_node": 331.217,
        "meta_arg_of_pericenter": 19.852,
        "meta_mean_anomaly": 358.0243,
        "meta_ephemeris_type": 0,
        "meta_classification_type": "U",
        "meta_norad_cat_id": 62850,
        "meta_element_set_no": 999,
        "meta_rev_at_epoch": 670,
        "meta_bstar": 0.00038967,
        "meta_mean_motion_dot": 7.78e-06,
        "meta_mean_motion_ddot": 0,
        "tle_line1": "1 62850U 25020A   25336.89784162  .00000778  00000+0  38967-3 0  9991",
        "tle_line2": "2 62850  21.0092 331.2170 7348100  19.8520 358.0243  2.17584219  6709"
      },
      "geometry": {
        "type": "Point",
        "coordinates": [
          142.33070774638716,
          3.311228669050785
        ]
      }
    },
    {
      "type": "Feature",
      "properties": {
        "norad_id": 63130,
        "name": "COSMOS 2584 (704K)",
        "group": "gnss",
        "lat": -4.423834033459072,
        "lon": 77.39343724829263,
        "alt_km": 19146.23378671165,
        "timestamp": "2025-12-03T10:52:57.694944+00:00",
        "meta_object_name": "COSMOS 2584 (704K)",
        "meta_object_id": "2025-042A",
        "meta_epoch": "2025-11-26T10:06:10.904256",
        "meta_mean_motion": 2.13103062,
        "meta_eccentricity": 0.00075218,
        "meta_inclination": 64.9668,
        "meta_ra_of_asc_node": 79.7019,
        "meta_arg_of_pericenter": 212.3772,
        "meta_mean_anomaly": 147.585,
        "meta_ephemeris_type": 0,
        "meta_classification_type": "U",
        "meta_norad_cat_id": 63130,
        "meta_element_set_no": 999,
        "meta_rev_at_epoch": 572,
        "meta_bstar": 0,
        "meta_mean_motion_dot": 1.8e-07,
        "meta_mean_motion_ddot": 0,
        "tle_line1": "1 63130U 25042A   25330.42095954  .00000018  00000+0  00000+0 0  9994",
        "tle_line2": "2 63130  64.9668  79.7019 0007521 212.3772 147.5850  2.13103062  5728"
      },
      "geometry": {
        "type": "Point",
        "coordinates": [
          77.39343724829263,
          -4.423834033459072
        ]
      }
    }
  ]
}